[{"OBJECT_NAME":"SL-8 R/B","OBJECT_ID":"1990-078B","EPOCH":"2026-03-03T23:57:02.000448","MEAN_MOTION":14.88836115,"ECCENTRICITY":0.0363616,"INCLINATION":82.8989,"RA_OF_ASC_NODE":256.4302,"ARG_OF_PERICENTER":33.1204,"MEAN_ANOMALY":329.2215,"EPHEMERIS_TYPE":0,"CLASSIFICATION_TYPE":"U","NORAD_CAT_ID":20775,"ELEMENT_SET_NO":999,"REV_AT_EPOCH":80845,"BSTAR":0.00061062512,"MEAN_MOTION_DOT":0.00020766,"MEAN_MOTION_DDOT":0},{"OBJECT_NAME":"SL-8 R/B","OBJECT_ID":"1991-006B","EPOCH":"2026-03-04T09:28:49.169856","MEAN_MOTION":13.77493534,"ECCENTRICITY":0.00233498,"INCLINATION":82.9464,"RA_OF_ASC_NODE":173.9817,"ARG_OF_PERICENTER":52.6107,"MEAN_ANOMALY":11.0797,"EPHEMERIS_TYPE":0,"CLASSIFICATION_TYPE":"U","NORAD_CAT_ID":21088,"ELEMENT_SET_NO":999,"REV_AT_EPOCH":76334,"BSTAR":5.7987447e-5,"MEAN_MOTION_DOT":7.3e-7,"MEAN_MOTION_DDOT":0},{"OBJECT_NAME":"OKEAN-3","OBJECT_ID":"1991-039A","EPOCH":"2026-03-04T05:25:51.830112","MEAN_MOTION":15.04758384,"ECCENTRICITY":0.00142819,"INCLINATION":82.5198,"RA_OF_ASC_NODE":342.1351,"ARG_OF_PERICENTER":358.1735,"MEAN_ANOMALY":1.9436,"EPHEMERIS_TYPE":0,"CLASSIFICATION_TYPE":"U","NORAD_CAT_ID":21397,"ELEMENT_SET_NO":999,"REV_AT_EPOCH":86421,"BSTAR":0.00033849706,"MEAN_MOTION_DOT":4.808e-5,"MEAN_MOTION_DDOT":0},{"OBJECT_NAME":"COSMOS 2151","OBJECT_ID":"1991-042A","EPOCH":"2026-03-04T13:07:51.183552","MEAN_MOTION":15.00081531,"ECCENTRICITY":0.00140969,"INCLINATION":82.4928,"RA_OF_ASC_NODE":88.6381,"ARG_OF_PERICENTER":78.9728,"MEAN_ANOMALY":281.3081,"EPHEMERIS_TYPE":0,"CLASSIFICATION_TYPE":"U","NORAD_CAT_ID":21422,"ELEMENT_SET_NO":999,"REV_AT_EPOCH":86242,"BSTAR":0.0002324751,"MEAN_MOTION_DOT":2.928e-5,"MEAN_MOTION_DDOT":0},{"OBJECT_NAME":"SL-14 R/B","OBJECT_ID":"1991-042B","EPOCH":"2026-03-04T11:46:38.050752","MEAN_MOTION":14.81823576,"ECCENTRICITY":0.00156208,"INCLINATION":82.4912,"RA_OF_ASC_NODE":225.0577,"ARG_OF_PERICENTER":257.1611,"MEAN_ANOMALY":102.7858,"EPHEMERIS_TYPE":0,"CLASSIFICATION_TYPE":"U","NORAD_CAT_ID":21423,"ELEMENT_SET_NO":999,"REV_AT_EPOCH":85230,"BSTAR":8.6798866e-5,"MEAN_MOTION_DOT":7.1e-6,"MEAN_MOTION_DDOT":0},{"OBJECT_NAME":"ERS-1","OBJECT_ID":"1991-050A","EPOCH":"2026-03-04T11:36:57.350304","MEAN_MOTION":14.39444979,"ECCENTRICITY":0.00313417,"INCLINATION":98.7885,"RA_OF_ASC_NODE":81.5877,"ARG_OF_PERICENTER":216.096,"MEAN_ANOMALY":143.8111,"EPHEMERIS_TYPE":0,"CLASSIFICATION_TYPE":"U","NORAD_CAT_ID":21574,"ELEMENT_SET_NO":999,"REV_AT_EPOCH":81498,"BSTAR":0.00016691503,"MEAN_MOTION_DOT":4.76e-6,"MEAN_MOTION_DDOT":0},{"OBJECT_NAME":"ARIANE 40 R/B","OBJECT_ID":"1991-050F","EPOCH":"2026-03-04T03:09:00.702432","MEAN_MOTION":14.4288901,"ECCENTRICITY":0.00043627,"INCLINATION":98.2024,"RA_OF_ASC_NODE":115.5761,"ARG_OF_PERICENTER":93.2924,"MEAN_ANOMALY":266.8765,"EPHEMERIS_TYPE":0,"CLASSIFICATION_TYPE":"U","NORAD_CAT_ID":21610,"ELEMENT_SET_NO":999,"REV_AT_EPOCH":81819,"BSTAR":0.00013952969,"MEAN_MOTION_DOT":4.24e-6,"MEAN_MOTION_DDOT":0},{"OBJECT_NAME":"INTERCOSMOS 25","OBJECT_ID":"1991-086A","EPOCH":"2026-03-04T03:02:10.927968","MEAN_MOTION":12.11982538,"ECCENTRICITY":0.1487059,"INCLINATION":82.6063,"RA_OF_ASC_NODE":313.3703,"ARG_OF_PERICENTER":128.9167,"MEAN_ANOMALY":245.4246,"EPHEMERIS_TYPE":0,"CLASSIFICATION_TYPE":"U","NORAD_CAT_ID":21819,"ELEMENT_SET_NO":999,"REV_AT_EPOCH":49601,"BSTAR":0.00033298708,"MEAN_MOTION_DOT":1.733e-5,"MEAN_MOTION_DDOT":0},{"OBJECT_NAME":"SL-8 R/B","OBJECT_ID":"1992-008B","EPOCH":"2026-03-04T03:13:31.410048","MEAN_MOTION":13.75969799,"ECCENTRICITY":0.00352697,"INCLINATION":82.9227,"RA_OF_ASC_NODE":271.9119,"ARG_OF_PERICENTER":148.4698,"MEAN_ANOMALY":331.0453,"EPHEMERIS_TYPE":0,"CLASSIFICATION_TYPE":"U","NORAD_CAT_ID":21876,"ELEMENT_SET_NO":999,"REV_AT_EPOCH":70865,"BSTAR":-1.0062614e-5,"MEAN_MOTION_DOT":6.0e-8,"MEAN_MOTION_DDOT":0},{"OBJECT_NAME":"SL-8 R/B","OBJECT_ID":"1992-020B","EPOCH":"2026-03-04T09:12:25.855776","MEAN_MOTION":13.75548821,"ECCENTRICITY":0.00278742,"INCLINATION":82.9341,"RA_OF_ASC_NODE":157.7001,"ARG_OF_PERICENTER":314.2233,"MEAN_ANOMALY":113.7047,"EPHEMERIS_TYPE":0,"CLASSIFICATION_TYPE":"U","NORAD_CAT_ID":21938,"ELEMENT_SET_NO":999,"REV_AT_EPOCH":70040,"BSTAR":9.2840972e-5,"MEAN_MOTION_DOT":1.05e-6,"MEAN_MOTION_DDOT":0},{"OBJECT_NAME":"USA 81","OBJECT_ID":"1992-023A","EPOCH":"2026-03-04T06:42:51.048864","MEAN_MOTION":14.32366052,"ECCENTRICITY":0.0002602,"INCLINATION":85.0095,"RA_OF_ASC_NODE":134.5619,"ARG_OF_PERICENTER":81.858,"MEAN_ANOMALY":278.2908,"EPHEMERIS_TYPE":0,"CLASSIFICATION_TYPE":"U","NORAD_CAT_ID":21949,"ELEMENT_SET_NO":999,"REV_AT_EPOCH":9401,"BSTAR":8.9261397e-5,"MEAN_MOTION_DOT":2.61e-6,"MEAN_MOTION_DDOT":0},{"OBJECT_NAME":"COSMOS 2219","OBJECT_ID":"1992-076A","EPOCH":"2026-03-04T08:34:15.259584","MEAN_MOTION":14.14089889,"ECCENTRICITY":0.00192922,"INCLINATION":71.0621,"RA_OF_ASC_NODE":29.2143,"ARG_OF_PERICENTER":214.1799,"MEAN_ANOMALY":145.8083,"EPHEMERIS_TYPE":0,"CLASSIFICATION_TYPE":"U","NORAD_CAT_ID":22219,"ELEMENT_SET_NO":999,"REV_AT_EPOCH":71762,"BSTAR":0.00018505788,"MEAN_MOTION_DOT":3.06e-6,"MEAN_MOTION_DDOT":0},{"OBJECT_NAME":"SL-16 R/B","OBJECT_ID":"1992-076B","EPOCH":"2026-03-04T11:20:53.471904","MEAN_MOTION":14.16860223,"ECCENTRICITY":0.00105788,"INCLINATION":71,"RA_OF_ASC_NODE":199.3614,"ARG_OF_PERICENTER":106.0891,"MEAN_ANOMALY":318.3363,"EPHEMERIS_TYPE":0,"CLASSIFICATION_TYPE":"U","NORAD_CAT_ID":22220,"ELEMENT_SET_NO":999,"REV_AT_EPOCH":72109,"BSTAR":3.3151224e-5,"MEAN_MOTION_DOT":1.9e-7,"MEAN_MOTION_DDOT":0},{"OBJECT_NAME":"COSMOS 2221","OBJECT_ID":"1992-080A","EPOCH":"2026-03-04T02:04:30.372096","MEAN_MOTION":14.96175748,"ECCENTRICITY":0.00135417,"INCLINATION":82.5016,"RA_OF_ASC_NODE":284.4495,"ARG_OF_PERICENTER":206.5778,"MEAN_ANOMALY":153.4751,"EPHEMERIS_TYPE":0,"CLASSIFICATION_TYPE":"U","NORAD_CAT_ID":22236,"ELEMENT_SET_NO":999,"REV_AT_EPOCH":77995,"BSTAR":0.00024462556,"MEAN_MOTION_DOT":2.785e-5,"MEAN_MOTION_DDOT":0},{"OBJECT_NAME":"SL-16 R/B","OBJECT_ID":"1992-093B","EPOCH":"2026-03-04T07:08:58.571232","MEAN_MOTION":14.15449479,"ECCENTRICITY":0.00063167,"INCLINATION":71.0239,"RA_OF_ASC_NODE":15.5835,"ARG_OF_PERICENTER":299.4224,"MEAN_ANOMALY":60.6268,"EPHEMERIS_TYPE":0,"CLASSIFICATION_TYPE":"U","NORAD_CAT_ID":22285,"ELEMENT_SET_NO":999,"REV_AT_EPOCH":71239,"BSTAR":-4.8894837e-5,"MEAN_MOTION_DOT":-1.43e-6,"MEAN_MOTION_DDOT":0},{"OBJECT_NAME":"COSMOS 2228","OBJECT_ID":"1992-094A","EPOCH":"2026-03-04T13:47:05.770176","MEAN_MOTION":14.97160171,"ECCENTRICITY":0.00171144,"INCLINATION":82.5146,"RA_OF_ASC_NODE":242.2092,"ARG_OF_PERICENTER":322.958,"MEAN_ANOMALY":37.046,"EPHEMERIS_TYPE":0,"CLASSIFICATION_TYPE":"U","NORAD_CAT_ID":22286,"ELEMENT_SET_NO":999,"REV_AT_EPOCH":77529,"BSTAR":0.00029883393,"MEAN_MOTION_DOT":3.487e-5,"MEAN_MOTION_DDOT":0},{"OBJECT_NAME":"SL-16 R/B","OBJECT_ID":"1993-016B","EPOCH":"2026-03-04T11:29:58.528032","MEAN_MOTION":14.15305908,"ECCENTRICITY":0.00114234,"INCLINATION":71.006,"RA_OF_ASC_NODE":226.1247,"ARG_OF_PERICENTER":321.4318,"MEAN_ANOMALY":38.5988,"EPHEMERIS_TYPE":0,"CLASSIFICATION_TYPE":"U","NORAD_CAT_ID":22566,"ELEMENT_SET_NO":999,"REV_AT_EPOCH":70143,"BSTAR":0.00018541762,"MEAN_MOTION_DOT":3.14e-6,"MEAN_MOTION_DDOT":0}]
